OBJECT_NAME,OBJECT_ID,EPOCH,MEAN_MOTION,ECCENTRICITY,INCLINATION,RA_OF_ASC_NODE,ARG_OF_PERICENTER,MEAN_ANOMALY,EPHEMERIS_TYPE,CLASSIFICATION_TYPE,NORAD_CAT_ID,ELEMENT_SET_NO,REV_AT_EPOCH,BSTAR,MEAN_MOTION_DOT,MEAN_MOTION_DDOT
BEIDOU-2 IGSO-5 (C10),2011-073A,2026-06-03T19:27:21.923424,1.00276258,.0113223,47.7037,271.7128,221.7068,142.4237,0,U,37948,999,5300,0,-.164E-5,0
LUCH 5A (SDCM/PRN 140),2011-074B,2026-06-04T02:22:41.959200,1.00269910,.0002518,8.7207,73.9998,7.4488,13.8040,0,U,37951,999,5292,0,-.4E-6,0
BEIDOU-2 G5 (C05),2012-008A,2026-06-04T03:34:34.283424,1.00269222,.0009659,3.5416,69.7782,276.2658,18.9155,0,U,38091,999,5223,0,.68E-6,0
BEIDOU-2 M3 (C11),2012-018A,2026-06-03T18:21:12.488832,1.86230161,.001988,55.7701,305.3272,275.0886,84.6664,0,U,38250,999,9569,0,-.61E-6,0
BEIDOU-2 M4 (C12),2012-018B,2026-06-01T00:17:34.485216,1.86229761,.00110626,55.6723,304.6348,278.2217,81.6260,0,U,38251,999,9564,0,-.79E-6,0
SES-5 (EGNOS/PRN 136),2012-036A,2026-06-03T18:00:00.000000,1.00270184,.00021701,0.0465,310.2198,120.8405,96.1312,0,U,38652,999,4432,0,.46E-6,0
BEIDOU-2 M6 (C14),2012-050B,2026-06-01T06:12:54.994176,1.86231095,.00140065,56.5308,63.4210,354.6899,5.3055,0,U,38775,999,9301,0,-.64E-6,0
GSAT-10 (GAGAN/PRN 128),2012-051B,2026-06-04T03:41:26.123712,1.00272495,.0008088,0.0240,261.8958,185.8329,303.2613,0,U,38779,999,4996,0,-.153E-5,0
GPS BIIF-3  (PRN 24),2012-053A,2026-06-03T08:33:08.794656,2.00567330,.01795248,53.5833,144.1659,65.5629,296.2875,0,U,38833,999,9916,0,.56E-6,0
GSAT0103 (GALILEO-FM3),2012-055A,2026-06-02T05:23:00.808224,1.70473545,.00052822,55.7979,101.9560,302.5754,57.3232,0,U,38857,999,8475,0,.3E-7,0
BEIDOU-2 G6 (C02),2012-059A,2026-06-03T22:22:51.870720,1.00268641,.0010233,4.3879,73.6667,326.8485,271.5225,0,U,38953,999,4977,0,-.163E-5,0
LUCH 5B (SDCM/PRN 125),2012-061A,2026-06-03T23:47:46.796640,1.00274489,.000152,10.4533,50.0115,139.2644,43.7879,0,U,38977,999,4947,0,-.129E-5,0
COSMOS 2485 (747),2013-019A,2026-06-03T07:14:06.972576,2.13103396,.0023533,65.4127,74.0700,235.2417,124.5506,0,U,39155,999,10198,0,-.15E-6,0
GPS BIIF-4  (PRN 27),2013-023A,2026-06-02T05:25:07.710816,2.00563682,.01416425,54.5161,269.5831,50.9646,310.2970,0,U,39166,999,9558,0,-.3E-6,0
IRNSS-1A,2013-034A,2026-05-22T20:37:38.469792,1.00280263,.00166187,35.6649,64.2334,185.3754,355.4646,0,U,39199,999,4711,0,.59E-6,0
GPS BIIF-5  (PRN 30),2014-008A,2026-06-03T05:23:10.271616,2.00558979,.00842288,53.6524,149.8892,231.0425,128.2031,0,U,39533,999,8940,0,.58E-6,0
ASTRA 5B (EGNOS/PRN 123),2014-011B,2026-06-04T03:24:27.751104,1.00272856,.0002308,0.0634,311.5981,114.6808,260.9523,0,U,39617,999,4453,0,.149E-5,0
COSMOS 2492 (754),2014-012A,2026-06-02T07:43:26.658048,2.13103599,.0010606,65.3065,314.4405,327.7227,32.1988,0,U,39620,999,9492,0,-.49E-6,0
IRNSS-1B,2014-017A,2026-05-19T20:39:38.653920,1.00280229,.00242269,28.9733,240.8911,185.2284,176.5740,0,U,39635,999,4451,0,.103E-5,0
LUCH 5V (SDCM/PRN 141),2014-023A,2026-06-04T04:49:38.495136,1.00269321,.000277,5.1016,69.8805,26.2347,323.6823,0,U,39727,999,4422,0,-.258E-5,0
GPS BIIF-6  (PRN 06),2014-026A,2026-06-03T11:59:46.289184,2.00562183,.0038293,56.5051,332.0503,326.8077,32.9551,0,U,39741,999,8826,0,-.74E-6,0
COSMOS 2500 (755),2014-032A,2026-06-02T23:03:53.716032,2.13106099,.00068272,65.2416,314.1670,181.8487,178.1366,0,U,40001,999,9315,0,-.45E-6,0
GPS BIIF-7  (PRN 09),2014-045A,2026-06-02T14:15:42.263424,2.00557560,.00327225,55.3440,89.0463,118.4505,241.8573,0,U,40105,999,8578,0,-.17E-6,0
GSAT0201 (GALILEO 5),2014-050A,2026-06-02T20:44:38.047200,1.85520153,.16724063,48.8915,274.0236,178.8372,181.6513,0,U,40128,999,7805,0,-.5E-6,0
GSAT0202 (GALILEO 6),2014-050B,2026-06-03T15:48:49.209696,1.85520761,.16737157,48.9074,273.0765,179.5935,180.6083,0,U,40129,999,8023,0,-.46E-6,0
IRNSS-1C,2014-061A,2026-06-03T20:50:41.495712,1.00271435,.00225294,6.4846,89.1801,0.9557,197.8922,0,U,40269,999,4255,0,-.151E-5,0
GPS BIIF-8  (PRN 03),2014-068A,2026-06-01T23:12:11.987424,2.00575438,.00666637,56.9774,31.5411,70.0478,290.7243,0,U,40294,999,8490,0,-.77E-6,0
COSMOS 2501 (702K),2014-075A,2026-06-04T03:52:31.196352,2.13101473,.0022429,63.6154,190.8230,212.0740,147.8607,0,U,40315,999,8957,0,.67E-6,0
GPS BIIF-9  (PRN 26),2015-013A,2026-06-02T02:30:16.185600,2.00552380,.01092347,53.1691,204.8015,40.0646,320.8265,0,U,40534,999,8152,0,.5E-6,0
GSAT0203 (GALILEO 7),2015-017A,2026-05-30T14:46:06.543264,1.70476295,.00021582,56.7927,342.0742,288.9559,71.0373,0,U,40544,999,6890,0,-.86E-6,0
GSAT0204 (GALILEO 8),2015-017B,2026-06-03T09:22:27.884064,1.70475881,.0001785,56.7984,341.9901,255.7638,104.2279,0,U,40545,999,3201,0,-.75E-6,0
