BEIDOU-2 IGSO-5         
1 37948U 11073A   26154.81067041 -.00000164  00000+0  00000+0 0  9998
2 37948  47.7037 271.7128 0113223 221.7068 142.4237  1.00276258 53009
LUCH-5A                 
1 37951U 11074B   26155.09909675 -.00000040  00000+0  00000+0 0  9995
2 37951   8.7207  73.9998 0002518   7.4488  13.8040  1.00269910 52925
BEIDOU-2 G5             
1 38091U 12008A   26155.14900791  .00000068  00000+0  00000+0 0  9994
2 38091   3.5416  69.7782 0009659 276.2658  18.9155  1.00269222 52231
BEIDOU-2 M3             
1 38250U 12018A   26154.76472788 -.00000061  00000+0  00000+0 0  9993
2 38250  55.7701 305.3272 0019880 275.0886  84.6664  1.86230161 95690
BEIDOU-2 M4             
1 38251U 12018B   26152.01220469 -.00000079  00000+0  00000+0 0  9996
2 38251  55.6723 304.6348 0011062 278.2217  81.6260  1.86229761 95645
SES-5                   
1 38652U 12036A   26154.75000000  .00000046  00000+0  00000+0 0  9994
2 38652   0.0465 310.2198 0002170 120.8405  96.1312  1.00270184 44323
BEIDOU-2 M6             
1 38775U 12050B   26152.25896984 -.00000064  00000+0  00000+0 0  9994
2 38775  56.5308  63.4210 0014006 354.6899   5.3055  1.86231095 93016
GSAT-10                 
1 38779U 12051B   26155.15377458 -.00000153  00000+0  00000+0 0  9990
2 38779   0.0240 261.8958 0008088 185.8329 303.2613  1.00272495 49967
NAVSTAR 67 (USA 239)    
1 38833U 12053A   26154.35635179  .00000056  00000+0  00000+0 0  9992
2 38833  53.5833 144.1659 0179524  65.5629 296.2875  2.00567330 99165
GSAT0103 (GALILEO-FM3)  
1 38857U 12055A   26153.22431491  .00000003  00000+0  00000+0 0  9998
2 38857  55.7979 101.9560 0005282 302.5754  57.3232  1.70473545 84752
BEIDOU-2 G6             
1 38953U 12059A   26154.93254480 -.00000163  00000+0  00000+0 0  9997
2 38953   4.3879  73.6667 0010233 326.8485 271.5225  1.00268641 49770
LUCH-5B                 
1 38977U 12061A   26154.99151385 -.00000129  00000+0  00000+0 0  9994
2 38977  10.4533  50.0115 0001520 139.2644  43.7879  1.00274489 49478
COSMOS 2485 [GLONASS-M] 
1 39155U 13019A   26154.30146959 -.00000015  00000+0  00000+0 0  9997
2 39155  65.4127  74.0700 0023533 235.2417 124.5506  2.13103396101988
NAVSTAR 68 (USA 242)    
1 39166U 13023A   26153.22578369 -.00000030  00000+0  00000+0 0  9995
2 39166  54.5161 269.5831 0141642  50.9646 310.2970  2.00563682 95582
IRNSS-1A                
1 39199U 13034A   26142.85947303  .00000059  00000+0  00000+0 0  9998
2 39199  35.6649  64.2334 0016618 185.3754 355.4646  1.00280263 47111
NAVSTAR 69 (USA 248)    
1 39533U 14008A   26154.22442444  .00000058  00000+0  00000+0 0  9991
2 39533  53.6524 149.8892 0084228 231.0425 128.2031  2.00558979 89405
ASTRA 5B                
1 39617U 14011B   26155.14198786  .00000149  00000+0  00000+0 0  9998
2 39617   0.0634 311.5981 0002308 114.6808 260.9523  1.00272856 44534
COSMOS 2492 [GLONASS-M] 
1 39620U 14012A   26153.32183632 -.00000049  00000+0  00000+0 0  9995
2 39620  65.3065 314.4405 0010606 327.7227  32.1988  2.13103599 94929
IRNSS-1B                
1 39635U 14017A   26139.86086405  .00000103  00000+0  00000+0 0  9999
2 39635  28.9733 240.8911 0024226 185.2284 176.5740  1.00280229 44519
LUCH-5V                 
1 39727U 14023A   26155.20113999 -.00000258  00000+0  00000+0 0  9995
2 39727   5.1016  69.8805 0002770  26.2347 323.6823  1.00269321 44222
NAVSTAR 70 (USA 251)    
1 39741U 14026A   26154.49984131 -.00000074  00000+0  00000+0 0  9994
2 39741  56.5051 332.0503 0038293 326.8077  32.9551  2.00562183 88268
COSMOS 2500 [GLONASS-M] 
1 40001U 14032A   26153.96103838 -.00000045  00000+0  00000+0 0  9998
2 40001  65.2416 314.1670 0006827 181.8487 178.1366  2.13106099 93154
NAVSTAR 71 (USA 256)    
1 40105U 14045A   26153.59423916 -.00000017  00000+0  00000+0 0  9997
2 40105  55.3440  89.0463 0032722 118.4505 241.8573  2.00557560 85781
GSAT0201 (GALILEO 5)    
1 40128U 14050A   26153.86432925 -.00000050  00000+0  00000+0 0  9995
2 40128  48.8915 274.0236 1672406 178.8372 181.6513  1.85520153 78053
GSAT0202 (GALILEO 6)    
1 40129U 14050B   26154.65890289 -.00000046  00000+0  00000+0 0  9990
2 40129  48.9074 273.0765 1673715 179.5935 180.6083  1.85520761 80233
IRNSS-1C                
1 40269U 14061A   26154.86853583 -.00000151  00000+0  00000+0 0  9993
2 40269   6.4846  89.1801 0022529   0.9557 197.8922  1.00271435 42551
NAVSTAR 72 (USA 258)    
1 40294U 14068A   26152.96680541 -.00000077  00000+0  00000+0 0  9996
2 40294  56.9774  31.5411 0066663  70.0478 290.7243  2.00575438 84909
COSMOS 2501 [GLONASS-K] 
1 40315U 14075A   26155.16147218  .00000067  00000+0  00000+0 0  9990
2 40315  63.6154 190.8230 0022429 212.0740 147.8607  2.13101473 89572
NAVSTAR 73 (USA 260)    
1 40534U 15013A   26153.10435400  .00000050  00000+0  00000+0 0  9993
2 40534  53.1691 204.8015 0109234  40.0646 320.8265  2.00552380 81529
GSAT0203 (GALILEO 7)    
1 40544U 15017A   26150.61535351 -.00000086  00000+0  00000+0 0  9997
2 40544  56.7927 342.0742 0002158 288.9559  71.0373  1.70476295 68904
GSAT0204 (GALILEO 8)    
1 40545U 15017B   26154.39060051 -.00000075  00000+0  00000+0 0  9995
2 40545  56.7984 341.9901 0001785 255.7638 104.2279  1.70475881 32015
